"id","name_en","name_fr","map_url","website","address1","address2","zip_code","country","state","city"
"164","Amphithéâtre Fernand-Lindsay","Amphithéâtre Fernand-Lindsay","https://www.google.com/maps/place/Amphith%C3%A9%C3%A2tre+Fernand-Lindsay/@46.003467,-73.413425,15z/data=!4m2!3m1!1s0x0:0x3323edde2b3de0b4?ved=2ahUKEwimmoKepMbgAhWOPN8KHb6_DLkQ_BIwDnoECAYQCA","https://placedesarts.com/fr/salle/amphith%C3%A9%C3%A2tre-fernand-lindsay-joliette","1655 Boulevard Base-de-Roc",""," J6E 0L1","Canada","Quebec","Jolliete"
"90","Anncienne École des beaux-arts","Anncienne École des beaux-arts","https://www.google.ca/maps/place/3450+Rue+Saint-Urbain,+Montr%C3%A9al,+QC+H2X+2N5/@45.511337,-73.5731867,17z/data=!3m1!4b1!4m5!3m4!1s0x4cc91a4a295e0467:0x87a677db6ade8848!8m2!3d45.511337!4d-73.570998","http://www.greenland.ca","3450 Rue Saint-Urbain","","H2X 2N5","Canada","Quebec","Montreal"
"124","Argo Bookshop","Argo Bookshop","https://www.google.ca/maps/place/1915+Rue+Sainte-Catherine+O,+Montr%C3%A9al,+QC+H3H+1M3/data=!4m2!3m1!1s0x4cc91a6c7ae8ddd1:0xdd11e87cdb80845e?sa=X&ved=2ahUKEwiUj--z49HcAhUlNH0KHZahBXsQ8gEwAHoECAIQAQ","https://www.facebook.com/argobookshop/","1915 Saint Catherine Ouest","","H3H 1M3","Canada","QC","Montreal"
"91","Auditorium de Verdun","Auditorium de Verdun","https://www.google.ca/maps/place/Auditorium+De+Verdun/@45.462592,-73.562299,15z/data=!4m5!3m4!1s0x0:0x38e527324d27d1ab!8m2!3d45.462592!4d-73.562299","http://ville.montreal.qc.ca/portal/page?_pageid=8637,95911645&_dad=portal&_schema=PORTAL","4110 Bd Lasalle","","H4G 2A5","","Quebec","Verdun"
"153","Ausgang Plaza","Ausgang Plaza","https://www.google.com/maps/place/Artgang+Gallery/@45.536249,-73.6043909,19z/data=!4m13!1m7!3m6!1s0x4cc919693c80e35f:0xd4b92fac50a1f04b!2s6524+St+Hubert+St,+Montreal,+QC+H2S+2M3!3b1!8m2!3d45.536249!4d-73.6038437!3m4!1s0x4cc919693c7d2171:0x37c33be422d9191!8","https://www.ausgangplaza.com","6524 Rue Saint-Hubert Montréal,  ","","H2S2M3","Canada","Quebec","Montreal"
"173","Bar Le magog","Bar Le magog","https://www.google.com/maps?q=bar+le+magog&um=1&ie=UTF-8&sa=X&ved=0ahUKEwiduqDF6dPlAhXEV98KHWICBtIQ_AUIEigB","https://www.facebook.com/barlemagog/","128-3 Rue Wellington S","","J1H 5C7","Canada","Quebec","Sherbrooke"
"17","Bar Le Ritz PDB","Bar Le Ritz PDB","https://maps.google.ca/maps?ie=UTF-8&q=Il+Motore&fb=1&gl=ca&hq=Il+Motore&cid=0,0,5676332480580451423&ei=hINdUoqCO6OdyQGB0IGoDw&ved=0CKABEPwSMAo","http://www.ilmotore.ca","179 Jean Talon O","","H2L 2X2","Canada","Quebec","Montréal"
"86","Bar Spectacle L'Escogriffe","Bar Spectacle L'Escogriffe","https://www.google.ca/maps/place/Escogriffe+Café+Bar+(L')/@45.5238709,-73.5823491,15z/data=!4m5!3m4!1s0x0:0x9919e5b9fa042082!8m2!3d45.5238709!4d-73.5823491","https://www.facebook.com/lescomontreal/"," 4461 St-Denis ","","H2J 2L1","Canada","Quebec","Montreal"
"31","Bistro de Paris","Bistro de Paris","https://www.google.ca/maps/place/Bistro+De+Paris/@45.524223,-73.583542,17z/data=!3m1!4b1!4m2!3m1!1s0x0:0xe83037d186740647?hl=en","http://www.youtube.com/LeBistroDeParis","4536 Rue Saint-Denis","","H2J 2L3","Canada","Quebec","Montréal"
"54","Blue Dog","Blue Dog","https://www.google.ca/maps/place/Blue+Dog/@45.516706,-73.578908,15z/data=!4m2!3m1!1s0x0:0x3ec6c5d871170335","https://www.facebook.com/TheBlueDogMotel","3958 Boul St-Laurent","","H2W 1Y3","Canada","Quebec","Montréal"
"146","Brasserie Beaubien","Brasserie Beaubien","https://www.google.ca/maps/place/Brasserie+Beaubien+Ltee/@45.531228,-73.6077941,15z/data=!4m2!3m1!1s0x0:0x4b26bc8e397d917a?sa=X&ved=2ahUKEwiZhZ-zsrvdAhWJk1kKHcLHCxcQ_BIwEHoECAkQCw","https://www.facebook.com/brasseriebeaubien/","73 Rue Beaubien E","","H2S 1R1","Canada","QC","Montreal"
"92","Cabaret du Casino de Montréal","Cabaret du Casino de Montréal","https://www.google.ca/maps/dir/''/''/data=!4m5!4m4!1m0!1m2!1m1!1s0x4cc91ae0c2f909ab:0xd257d3d10ed026d4?sa=X&ved=0ahUKEwjvr4ayh5nXAhWr6YMKHayHC54Q9RcICzAA","http://casinos.lotoquebec.com/fr/montreal/sortir/cabaret","1, avenue du Casino","","H3C 4W7","","Quebec","Montreal"
"24","Cabaret Lion D'or","Cabaret Lion D'or","https://maps.google.ca/maps?ie=UTF-8&q=Le+Lion+D'Or&fb=1&gl=ca&hq=lion+D'or+ontario+est&cid=8777986695765426767&ei=03GvUp76OonR2AWC4oHgCQ&ved=0CKUBEPwSMA0","http://www.cabaretliondor.com","1676 Rue Ontario E","","H2L 1S7","Canada","Quebec","Montréal"
"14","Café Campus","Café Campus","https://maps.google.ca/maps?daddr=57+Rue+Prince+Arthur+Est,+Montreal,+QC+H2X+2Y3&gl=ca&panel=1&fb=1&dirflg=d&geocode=0,45.514480,-73.572298&cid=0,0,2487135412711669425&hq=petit+campus&t=h&z=16","http://www.cafecampus.com/en","57 Rue Prince Arthur E","","H2X 1B4","Canada","Quebec","Montréal"
"115","Café Cleopatra","Café Cleopatra","https://www.google.ca/maps/place/Caf%C3%A9+Cl%C3%A9opatra/@45.509516,-73.56347,15z/data=!4m2!3m1!1s0x0:0x154ec8f4b3f71504?sa=X&ved=2ahUKEwjJ9NvQm8_cAhWSrFkKHbBlAmwQ_BIwD3oECAcQCw","http://cleopatramontreal.com/cleo_new/index-fr.html","1230 St Laurent Blvd","","H2X 2S5","Canada","Quebec","Montreal"
"21","Casa Del Popolo","Casa Del Popolo","https://maps.google.ca/maps?ie=UTF-8&q=casa+del+popolo&fb=1&gl=ca&hq=casa+del+popolo&cid=16777819646188218756&ei=JieeUri8IquQyQHIy4GgDA&ved=0CJ8BEPwS","http://casadelpopolo.com","4873 St.-Laurent","","H2T 1R6","Canada","Quebec","Montréal"
"148","Centaur Theatre","Théâtre Centaur","https://www.google.ca/maps/place/Centaur+Theatre+Company/@45.503586,-73.55657,15z/data=!4m2!3m1!1s0x0:0x23eef348d8c39f20?sa=X&ved=2ahUKEwja-OyN5f7dAhVqZN8KHXlXAoUQ_BIwEXoECAcQCw","https://centaurtheatre.com/","453 St Francois Xavier St","","H2Y 2T1","Canada","Quebec","Montreal"
"168","Center of Creation O Vertigo - CCOV","Centre de Création O Vertigo - CCOV","https://www.eventbrite.ca/e/ccov-x-nva-unravel-registration-64672433991?aff=ebdssbdestsearch#map-target","https://www.google.com/url?sa=t&rct=j&q=&esrc=s&source=web&cd=1&ved=2ahUKEwi7nJ-m5LfjAhXFVN8KHfRqCd0QFjAAegQIBRAD&url=https%3A%2F%2Fccov.org%2Fen%2F&usg=AOvVaw0g7layn3Lg2ePtJNg3-6hW","175 Rue Sainte-Catherine Ouest","","H2X 1Z8","Canada","QC","Montreal"
"47","Centre Bell","Centre Bell","http://maps.google.com/maps?q=centre+bell&hl=en&ll=45.49618,-73.562222&spn=0.024817,0.055747&sll=45.489396,-73.585268&sspn=0.012079,0.020063&hq=centre+bell&t=m&z=15&iwloc=A","http://www.centrebell.ca/","1909 avenue des Canadiens-de-Montréal","","H4B 5G0","Canada","Quebec","Montréal"
"133","Centre d'art La Chapelle","Centre d'art La Chapelle","https://www.google.ca/maps/place/Centre+d'art+La+Chapelle/@46.8244553,-71.2614432,15z/data=!4m2!3m1!1s0x0:0x75e808187c0dba9a?sa=X&ved=2ahUKEwjw_bbp5qvdAhWEg-AKHQQECwUQ_BIwDHoECAgQCw","http://centredartlachapelle.com/","620 Plante Ave","","G1M 3R5","Canada","Quebec","Quebec City"
"57","Centre Phi","Centre Phi","https://www.google.ca/maps/place/Centre+Phi/@45.501435,-73.556469,19z/data=!3m1!4b1!4m2!3m1!1s0x4cc91a59018f0667:0x8706f5fc9e95a185","http://phi-centre.com/","407 St-Pierre","","H2Y 2M3","Canada","Quebec","Montréal"
"70","Cepsum - Université de Montréal","Cepsum","https://www.google.ca/maps/place/Ctre+d'éducation+physique+et+des+sports,+Montréal,+QC+H3T+1J4/@45.5082162,-73.6148915,17z/data=!3m1!4b1!4m2!3m1!1s0x4cc9198e674459b1:0x4f491fdfaed91103","http://www.cepsum.umontreal.ca/","2100 boul. Édouard-Montpetit ","","H3T 1J4","Canada","Québec","Montréal"
"151","Cinéma du Musée - Musée des Beaux-Arts","Cinéma du Musée - Musée des Beaux-Arts","https://goo.gl/maps/dZBvFt2Byzr","https://www.mbam.qc.ca/renseignements/cinema-du-musee/","1380, Rue Sherbrooke O","","H3G1J5","Canada","QC","Montreal"
"55","Cinema du Parc","Cinéma du Parc","https://www.google.ca/maps?q=cinema+du+parc&ion=1&espv=2&bav=on.2,or.&bvm=bv.91071109,d.aWw&biw=2523&bih=1302&dpr=1&um=1&ie=UTF-8&sa=X&ei=i0I1VfDLAqHLsASuj4G4Aw&ved=0CAYQ_AUoAQ","http://www.cinemaduparc.com/","3575 ave. du Parc","","H2X 3P9","Canada","Quebec","Montréal"
"150","Cinéma Impérial","Cinéma Impérial","https://www.google.ca/maps/vt/data=w6wP7nNYZRWNO46ik8BCNPzQBnVeaEpt7Sy8xjzyf3Hyc1uXlRAuzSqXSPuYxqBXn9c2FbrH3SeLOjZVqsyrC8-OxuP-tvbSgNYDaMy7Xvncv-1yUrVzcWv8MjU-s-06mMLVAEQfGKORm6m60FlXI-ukyyIZhbHV8qYdDImcatuBElnJjZYhbphko5BYBIbRzUWtq9qQLzqNAezXccNOPUX5YANtM","http://www.cinemaimperial.com/","1430 Rue de Bleury","","H3A 2J1","Canada","QC","Montreal"
"144","Cinéma l'Amour","Cinéma l'Amour","https://www.google.ca/maps/place/Cin%C3%A9ma+L'amour/@45.5169443,-73.5790988,15z/data=!4m2!3m1!1s0x0:0xc6fb3bb655919fbd?sa=X&ved=2ahUKEwic5NaK97rdAhWFzVkKHVmUBMcQ_BIwE3oECAoQCw","https://www.cinemalamour.com/english/ie/","4015 Boulevard Saint-Laurent","","H2W 1Y4","Canada","QC","Montreal"
"145","Cinéma Moderne","Cinéma Moderne","https://www.google.ca/maps/place/Cin%C3%A9ma+Moderne/@45.5234191,-73.5938872,15z/data=!4m2!3m1!1s0x0:0xb031bed3dac1b7a6?sa=X&ved=2ahUKEwjxzbbnr7vdAhVxxFkKHTWICg0Q_BIwCnoECAoQCw","https://www.cinemamoderne.com/","5150 St Laurent Blvd","","H2T 1R8","Canada","QC","Montreal"
"77","Cinquième Salle","Cinquième Salle","https://www.google.ca/maps/place/Place+des+Arts/@45.5083198,-73.5664312,15z/data=!4m5!3m4!1s0x0:0x586dc216d8c34686!8m2!3d45.5083198!4d-73.5664312","http://placedesarts.com/rooms/main-rooms/cinquieme-salle.en.html","175 Rue Sainte-Catherine O.","","H2X 1Y9","Canada","Quebec","Montréal"
"25","Club Lambi","Club Lambi","https://maps.google.ca/maps?ie=UTF-8&q=Club+Lambi&fb=1&gl=ca&hq=club+lambi&cid=3423075914293915790&ei=vQPgUqWLLeur2AWD3oHYAQ&ved=0CL0BEPwSMBE","https://www.facebook.com/clublambi‎","4465 St-Laurent","","H2W 1Z8","Canada","Quebec","Montréal"
"22","Club Soda","Club Soda","https://maps.google.ca/maps?f=q&source=embed&hl=en&geocode;=&q=1225+st-laurent+montreal&sll=49.891235,-97.15369&sspn=46.07776,109.335938&ie=UTF8&hq;=&hnear=1225+Boulevard+Saint-Laurent,+Montreal,+Communauté-Urbaine-de-Montréal,+Quebec&z=16&ll=45.509491,-73","http://www.clubsoda.ca","1225 St-Laurent","","H2X 2S6","Canada","Quebec","Montréal"
"137","Concordia University - DB Clarke Theatre","Université Concordia - Théâtre DB Clarke","https://www.google.ca/maps/place/DB+Clarke+Theatre/@45.4973223,-73.5790288,15z/data=!4m2!3m1!1s0x0:0xa753f90cc2ee3da7?sa=X&ved=2ahUKEwjN4Mrzg7HdAhVs4YMKHXY2CIgQ_BIwD3oECAoQCw","https://www.concordia.ca/arts/venues/db-clarke-theatre.html","1455 Boulevard de Maisonneuve West,, Boulevard de Maisonneuve O","","H3G1M8","Canada","QC","Montreal"
"101","Crobar","Crobar","https://www.google.ca/maps/place/1221+Crobar/@45.49681,-73.574574,15z/data=!4m2!3m1!1s0x0:0xae768f7ed6488f63?sa=X&ved=0ahUKEwjTopay8PvaAhVHhuAKHRYtCeQQ_BIIlAEwDw","https://www.facebook.com/crobar1221/","1221 Crescent","","H3G 2B1","Canada","Quebec","Montreal"
"59","Cunard Centre","Centre Cunard","https://www.google.ca/maps/place/Cunard+Centre/@44.6374341,-63.565709,17z/data=!3m1!5s0x4b5a224f2ac3058b:0x66e96b142eaef450!4m7!1m4!3m3!1s0x4b5a22493bb61093:0x75693ab36aa2a5b7!2s961+Marginal+Rd,+Halifax,+NS+B3H+4N4!3b1!3m1!1s0x0000000000000000:0x94842d2d25","http://www.rcr.ca/catering/venues/cunard-centre/","961 Rue Marginal","","B3H 4P6","Canada","Nova Scotia","Halifax"
"6","Divan Orange","Divan Orange","https://maps.google.ca/maps?q=divan+orange&hl=en&sll=45.520492,-73.598517&sspn=0.002244,0.004517&t=h&hq=divan+orange&z=15","http://www.divanorange.org","4234 St-Laurent","","H2W 1Z3","Canada","Quebec","Montréal"
"139","Eastern Bloc","Eastern Bloc","https://www.google.ca/maps/place/Eastern+Bloc/@45.5343858,-73.6198242,15z/data=!4m2!3m1!1s0x0:0xd2ad85e25dd901f5?sa=X&ved=2ahUKEwiD1czJ0bHdAhVpT98KHdwrA2MQ_BIwE3oECAgQCw","https://easternbloc.ca/","7240 Clark St","","H2R 2Y3","Canada","QC","Montreal"
"118","École de Danse Montréal NDG","École de Danse Montréal NDG","https://www.google.ca/maps/place/6380+Rue+Sherbrooke+O,+Montr%C3%A9al,+QC+H4B+1N1/data=!4m2!3m1!1s0x4cc910ca95a9a9a3:0x75d9d084fc6882c6?sa=X&ved=2ahUKEwjDnLXls9HcAhWlrFkKHY3yBQkQ8gEwAHoECAAQAQ","https://www.facebook.com/%C3%89cole-de-Danse-Montr%C3%A9al-NDG-140521850013053/","6380 Rue Sherbrooke O","","H4B 1N1","Canada","Quebec","Montréal"
"163","Espace culturel Georges-Émile-Lapalme","Espace culturel Georges-Émile-Lapalme","https://www.google.com/maps/place/Place+des+Arts/@45.5083235,-73.5686252,17z/data=!3m1!4b1!4m5!3m4!1s0x4cc91a4ed7c23fd3:0x586dc216d8c34686!8m2!3d45.5083198!4d-73.5664312","https://placedesarts.com/","175 Saint-Catherine St, Montreal, QC H2X 1Y9","","H2X 1Y9","Canada","Quebec","Montreal"
"156","Espace Knox","Espace Knox","https://www.google.ca/search?q=espace+knox&oq=Espace+Knox&aqs=chrome.0.0l2.193j0j1&sourceid=chrome&ie=UTF-8#","https://www.espaceknox.ca/","6215 Avenue Godfrey","","H4B 1K3","Canada","QC","Montreal"
"142","Espace POP","Espace POP","https://www.google.com/maps/place/5587+Park+Ave,+Montreal,+QC+H2V+4H2/@45.5226355,-73.604917,17z/data=!3m1!4b1!4m5!3m4!1s0x4cc91978e6ece3eb:0xa02bca6a6e7f941e!8m2!3d45.5226355!4d-73.6027283","https://popmontreal.com/en/pop-space/","5587 Avenue du Parc","","H2V 4S8","Canada","QC","Montreal"
"18","Foufounes Electriques","Foufounes Electriques","https://maps.google.ca/maps?q=foufounes+87+st+catherine+est+montreal&ie=UTF-8&ei=JaBdUpKrE8K0ygHT3YCYDw&ved=0CAoQ_AUoAg","http://foufounes.qc.ca","87 Ste-Catherine E.","","H2X 1K5","Canada","Quebec","Montréal"
"169","Grenade","Grenade","https://www.eventbrite.com/e/her-montreal-bush-a-queer-t-dance-tickets-63773627637?aff=ebdssbdestsearch#map-target","https://www.google.com/url?sa=t&rct=j&q=&esrc=s&source=web&cd=1&ved=2ahUKEwjhuufqtLjjAhUkVt8KHQr_DN4QFjAAegQIABAC&url=https%3A%2F%2Fwww.grenadebar.ca%2F&usg=AOvVaw0-1ow-ReTYnNY14TKmJKE3","1603 Rue Ontario Est","","H2L 1S5","Canada","QC","Montreal"
"117","Harold Greenspon Auditorium","Harold Greenspon Auditorium","https://www.google.ca/maps/place/5801+Boul+Cavendish,+C%C3%B4te+Saint-Luc,+QC+H4W+2X8/data=!4m2!3m1!1s0x4cc917719ea5e2e7:0x91ccdb5587c5a885?sa=X&ved=2ahUKEwjm6oX6pdHcAhUPxVkKHQyuBIkQ8gEwAHoECAIQAQ","http://www.cotesaintluc.org/RentalAud","5801 boulevard Cavendish","","H4W 2X8","Canada","Quebec","Côte Saint-Luc"
"152","Infinithéâtre","Infinithéâtre","https://www.google.ca/maps/vt/data=NBLyMqPx7aCP3T6MDhtKNcjhVWHSrrT1I2_mMCPoZAsf0MEuDn2bPnIsHDgzgQEyOMqEj4qnr9oLGWB2yfnOzzqmcRxWRCl_sERjIazxKMdhUaNb24o3EASrCDr6J21JSUgJQQJlhLKD-nNnCp32YXe8SzptVWp6BWdJPa00KYUBlPTBeyAX1b3mx4ab--TwiY-PT7qwm_OZsb8WzBT7MYIAy1O5F","http://www.infinitheatre.com/","5413 St Laurent Blvd","","H2T 1S5","Canada","QC","Montreal"
"155","Jean-Duceppe Theatre","Théâtre Jean-Duceppe","https://www.google.ca/search?q=theatre+jean+duceppe&oq=theatre+jean+&aqs=chrome.0.0j69i57j0l4.1623j0j1&sourceid=chrome&ie=UTF-8#","https://duceppe.com/","175 Saint-Catherine St W","","H2X 1Z8","Canada","Quebec","Montreal"
"162","Jean-Duceppe Theatre","Théâtre Jean-Duceppe","https://www.google.com/maps/place/Th%C3%A9%C3%A2tre+Jean-Duceppe+(theater)/@45.5086942,-73.5652318,15z/data=!4m2!3m1!1s0x0:0xdc9d3fef23534c89?ved=2ahUKEwjU4Z_mosbgAhVnzlkKHZjBBhkQ_BIwDXoECAYQCA","https://duceppe.com/","175 Saint-Catherine St West","","H2X 1Z8","Canada","Quebec","Montreal"
"126","Kafein café-bar","Kafein café-bar","https://www.google.ca/maps/place/Kafein+cafe-bar/@45.4972054,-73.5771157,15z/data=!4m2!3m1!1s0x0:0xf35cb8c18a36fb1?sa=X&ved=2ahUKEwi71sGh5tHcAhUYIzQIHQpzDekQ_BIwD3oECAoQCw","http://kafein.ca/","1429a rue Bishop","","H3G2E4","Canada","QC","Montreal"
"39","Katacombes","Katacombes","https://www.google.ca/maps/place/Coop+De+Travail+Katacombes/@45.51131,-73.566523,17z/data=!3m1!4b1!4m2!3m1!1s0x0:0x5c66749bdf0365f0","http://www.Katacombes.com","1635 St-Laurent","","H2X 2S9","Canada","Quebec","Montréal"
"174","L'ANTI Bar & Spectacles","L'ANTI Bar & Spectacles","https://www.google.com/maps?q=L%E2%80%99Anti+Bar+%26+Spectacles&uact=5&um=1&ie=UTF-8&sa=X&ved=0ahUKEwixpdup6tPlAhVrUd8KHWdSDLQQ_AUIEigB","https://lanti.ca/","251 Rue Dorchester","","G1K 5Z6","Canada","Quebec","Quebec"
"29","L'Arsenal","L'Arsenal","https://www.google.com/maps/preview?ie=UTF-8&q=Arsenal&fb=1&hq=arsenal+montreal&cid=12565049118755643475&ei=aCczU4XiCKnr0gGCv4E4&ved=0CKcBEPwSMAs","http://arsenalmontreal.com","2020 Rue William","","H3J 1R8","Canada","Quebec","Montréal"
"38","L'Astral","L'Astral","https://www.google.ca/maps/place/L'Astral/@45.5068285,-73.5668666,17z/data=!4m2!3m1!1s0x0:0x34390274de602491","http://www.sallelastral.com/","305 Ste-Catherine O","","H2X 2A3","Canada","Quebec","Montréal"
"102","L'Astral - Salle Stevie Wonder","L'Astral - Salle Stevie Wonder","https://www.google.ca/maps/place/L'Astral/@45.5068285,-73.5668666,17z/data=!4m2!3m1!1s0x0:0x34390274de602491","http://www.sallelastral.com/","305 Ste. Catherine Street W. ","","H2X 2A3","Canada","Quebec","Montreal"
"98","L'Impérial Bell","L'Impérial Bell","https://www.google.com/maps/place/Imp%C3%A9rial+Bell/@46.8134202,-71.2283011,19z/data=!3m1!4b1!4m12!1m6!4m5!1m0!1m3!2m2!1d-71.2277526!2d46.8134202!3m4!1s0x4cb89671c1c88319:0x1e3648e972790baa!8m2!3d46.8134202!4d-71.2277526?hl=fr","https://www.imperialbell.com/Imperial-Bell/Programmation","252 Rue Saint-Joseph Est","","G1K 3A9","Canada","Quebec","Quebec"
"36","L'Olympia","L'Olympia","https://www.google.ca/maps/place/Theatre+De+L'Olympia/@45.517102,-73.557276,17z/data=!3m1!4b1!4m2!3m1!1s0x0:0xb3a70ea0756874a5","http://www.olympiamontreal.com/","1004 Ste-Catherine E.","","H2L 2G2","Canada","Quebec","Montréal"
"116","La Chapelle","La Chapelle","https://www.google.com/maps/search/?api=1&query=45.5149703%2C-73.5736422","http://lachapelle.org/","3700 rue Saint-Dominique","","H2X2X7","Canada","Quebec","Montreal"
"143","la petite librairie Drawn & Quarterly","la petite librairie Drawn & Quarterly","https://www.google.ca/maps/place/La+Petite+Librairie+Drawn+%26+Quarterly/@45.5251122,-73.6040465,15z/data=!4m2!3m1!1s0x0:0x2df94c192d04c739?sa=X&ved=2ahUKEwi45OK18rrdAhVGrlkKHTRlCxAQ_BIwCnoECAoQCw","http://mtl.drawnandquarterly.com/","176 Bernard Ouest","","H2T 2K2","Canada","QC","Montreal"
"4","La Sala Rossa","La Sala Rossa","https://maps.google.ca/maps?oe=utf-8&client=firefox-a&ie=UTF8&q=SALA+ROSSA&fb=1&gl=ca&hq=SALA+ROSSA&hnear=0x4cc91a541c64b70d:0x654e3138211fefef,Montreal,+QC&cid=0,0,12796574616310295488&ll=45.521804,-73.590331&spn=0.009682,0.018024&t=m&z=16&vpsrc=0&iwloc=A","http://www.casadelpopolo.com","4848 St-Laurent","","H2T 1R5","Canada","Quebec","Montréal"
"9","La Tulipe","La Tulipe","https://maps.google.ca/maps?q=Cabaret+La+Tulipe,+Montreal,+QC&hl=en&sll=45.523903,-73.582509&sspn=0.009636,0.018346&oq=la+tulipe&t=h&hq=Cabaret+La+Tulipe,&hnear=Montreal,+Quebec&z=13","http://www.latulipe.ca","4530 Papineau","","H2H 1V3","Canada","Quebec","Montréal"
"30","La Vitrola","La Vitrola","https://www.google.ca/maps/place/4602+Boulevard+Saint-Laurent/@45.5209873,-73.5885926,17z/data=!3m1!4b1!4m2!3m1!1s0x4cc91bd47e25ac4b:0xf6bae382b3b10305","http://www.greenland.ca","4602 St- Laurent","","H2T 1R3","Canada","Quebec","Montréal"
"74","Le Balcon","Le Balcon","http://www.lebalcon.ca/en/location-and-parking#main","http://www.lebalcon.ca/","463, Rue Sainte-Catherine Ouest ","","H2W1Y8","Canada","Quebec","Montreal"
"19","Le Belmont","Le Belmont","https://maps.google.ca/maps?ie=UTF-8&q=Belmont+sur+le+Boulevard+(Le)&fb=1&gl=ca&hq=Belmont+sur+le+Boulevard&cid=0,0,3900048740548779126&ei=I6VdUtK_GqHayAH58oBA&ved=0CJUBEPwSMAk","http://lebelmont.com","4483 St-Laurent","","H2T 1R4","Canada","Quebec","Montréal"
"27","Le Bleury","Le Bleury","https://maps.google.ca/maps?q=2109+Bleury,+Montreal,+QC,+H3A+2K2&ie=UTF-8&hq;=&hnear=0x4cc91a48dd5b048f:0xcabd5f2fb00a620f,2109+Rue+de+Bleury,+Montréal,+QC+H3A&gl=ca&ei=-XL1UtbHH4f4yAHKmoDgAw&ved=0CCsQ8gEwAA","http://vinylebleury.ca/","2109 Bleury","","H3A 2K2","Canada","Quebec","Montréal"
"66","Le Cinq","Le Cinq","https://www.google.ca/maps/place/Le+Cinq+Boite+de+nuit+&+restaurant/@45.49744,-73.5747132,15z/data=!4m2!3m1!1s0x0:0x901c6c2b297eb10d?sa=X&ved=0ahUKEwiR2JzG-tnKAhWLxIMKHRmaBPgQ_BIIfjAL","http://lecinq.ca","1234 Rue de la Montagne","","H3G 1Z1","Canada","Quebec","Montreal"
"100","Le Club","Le Club","https://www.google.com/maps/place/Le+Club+Dix30/@45.4557685,-73.4827169,14z/data=!4m8!1m2!2m1!1sle+club,+brossard!3m4!1s0x4cc90f4f85db237d:0xd93049bfa826b1a8!8m2!3d45.4454535!4d-73.4381654?hl=fr","http://www.leclubdix30.com","9200 Boulevard Leduc","","J4Y 0L1","Canada","Quebec","Brossard"
"172","Le Gesù","Le Gesù","https://www.google.com/maps/place/Gesu/@45.50568,-73.565996,15z/data=!4m2!3m1!1s0x0:0xadd0cddb1d563489?sa=X&ved=2ahUKEwj5-M7A_a3lAhWIiOAKHaI2DokQ_BIwHHoECAoQCA","https://www.legesu.com/","1200 Rue de Bleury","","H3B 3J3","Canada","Québec","Montréal"
"42","Le Late Night Little Burgundy","Le Late Night Little Burgundy","https://www.google.com/maps/place/105+Rue+Saint+Viateur+Ouest,+Montréal,+QC+H2T+2L2,+Canada/@45.524543,-73.600306,12z/data=!4m2!3m1!1s0x4cc91979503a9fe7:0x79488b2dd6f5cacf?hl=en-US","http://www.popmontreal.com","105 St-Viateur O","","H2T 2X2","Canada","Quebec","Montréal"
"131","Le Milieu","Le Milieu","https://www.google.ca/maps/place/1251+Rue+Robin,+Montr%C3%A9al,+QC+H2L+1W8/data=!4m2!3m1!1s0x4cc91bb1139a5b55:0x82d8ac61ba3a0763?sa=X&ved=2ahUKEwjHtoDhhNXcAhUSk1kKHXXmDWAQ8gEwAHoECAAQAQ","http://www.lemilieu.ca/","1251 Rue Robin","","H2L 1W8","Canada","QC","Montreal"
"94","Le Ministère","Le Ministère","https://www.google.ca/maps/place/Le+Minist%C3%A8re/@45.5205017,-73.5868064,15z/data=!4m2!3m1!1s0x0:0xc0e509ef0666366f?sa=X&ved=0ahUKEwiQ7em9zYLZAhWlyoMKHQx7BmkQ_BIIkwEwCg","http://leministere.ca","4521 Saint-Laurent","","H2T 1R2","Canada","Quebec","Montreal"
"10","Le National","Le National","https://maps.google.ca/maps?q=Le+National,+Montreal,+QC&hl=en&sll=45.533177,-73.575403&sspn=0.077079,0.14677&t=h&hq=Le+National,&hnear=Montreal,+Quebec&z=12&iwloc=A","http://www.latulipe.ca","1220 Rue Ste-Catherine E.","","H2L 2G9","Canada","Quebec","Montréal"
"134","Le Nouveau Studio","Le Nouveau Studio","https://www.google.ca/maps/place/137+Rue+Saint-Ferdinand+%23220,+Montreal,+QC+H4C+2B9/data=!4m2!3m1!1s0x4cc9109cb4ee99e3:0x1c0719f31e672969?sa=X&ved=2ahUKEwiiwc6a7avdAhVMj1kKHQGnBlsQ8gEwAHoECAUQAQ","https://www.facebook.com/LeNouveauStudioStHenri/","137 Rue Saint-Ferdinand #220","","H4C2B9","Canada","Quebec","Montreal"
"37","Le Parterre de l'Île Notre-Dame","Le parterre de l'Île Notre-Dame","https://www.google.ca/maps/place/1+Circuit+Gilles+Villeneuve/@45.5036658,-73.5236156,17z/data=!3m1!4b1!4m2!3m1!1s0x4cc91ae6e84b6f9d:0x33f730e5f61367ad","http://www.parcjeandrapeau.com/?tabid=150","1 Circuit Gilles Villeneve","","H3C 1A9","Canada","Quebec","Montréal"
"43","Le Petit Olympia","Le Petit Olympia","https://maps.google.ca/maps?espv=2&ion=1&bav=on.2,or.r_qf.&bvm=bv.74115972,d.b2U,pv.xjs.s.en.2Tixjos8Mew.O&biw=1224&bih=900&um=1&ie=UTF-8&fb=1&gl=ca&sll=45.5170754,-73.5562665&sspn=0.0230945,0.0439462&q=1282+Rue+Amherst,+Montréal,+QC+H2L&sa=X&ei=miEGVIfKHd","http://www.olympiamontreal.com/en/le-petit-olympia/","1282 rue Amherst","","H2L 3K8","Canada","Quebec","Montréal"
"176","Le Trou du diable","Le Trou du diable","https://www.google.com/maps?q=trou+du+diable+shawinigan&um=1&ie=UTF-8&sa=X&ved=0ahUKEwjW6dOr69PlAhUOTN8KHVkvAr4Q_AUIEigB","https://troududiable.com/?lang=en","412 Avenue Willow","","G9N 1X2","Canada","Quebec","Shawinigan"
"120","Les Habitations Sherbrooke Forest Inc.","Les Habitations Sherbrooke Forest Inc.","https://www.google.ca/maps/place/Les+Habitations+Sherbrooke+Forest+Inc./@45.4644807,-73.6263747,15z/data=!4m2!3m1!1s0x0:0xe3e64bfdae5bd462?sa=X&ved=2ahUKEwi0j9PDudHcAhVDKH0KHYwLB2EQ_BIwDnoECAoQCw","https://www.sherbrookeforest.com/","6402 Sherbrooke St W","","H4B1N2","Canada","Quebec","Montreal"
"71","M2 (MTelus)","M2 MTelus)","https://www.google.com/maps?ll=45.510544,-73.56333&z=16&t=m&hl=en&gl=US&mapclient=embed&q=59+Rue+Sainte-Catherine+E+Montréal,+QC+H2X+1K5+Canada","https://mtelus.com/fr","59 Ste. Catherine Street E.","","H2X 1K5","Canada","Québec","Montréal"
"114","MainLine Theatre","Théâtre MainLine","https://www.google.ca/maps/place/Mainline+Theatre/@45.5169987,-73.5787895,15z/data=!4m2!3m1!1s0x0:0x81141f63ce1a4638?sa=X&ved=2ahUKEwiGwM-SxczcAhUp0FkKHb-7BpkQ_BIwDnoECAoQCw","http://www.mainlinetheatre.ca/","3997 Boulevard Saint-Laurent","","H2W 1Y4","Canada","Quebec","Montreal"
"158","Maison de la Culture Frontenac","Maison de la Culture Frontenac","https://www.google.ca/search?q=maison+de+la+culture+frontenac&oq=Maison+de+la+Culture+Frontenac&aqs=chrome.0.0l6.253j0j1&sourceid=chrome&ie=UTF-8#","http://ville.montreal.qc.ca/portal/page?_pageid=7317,78869689&_dad=portal&_schema=PORTAL","2550 Ontario St E","","H2K 1W7","Canada","QC","Montreal"
"159","Maison de la culture Plateau Mont-Royal","Maison de la culture Plateau Mont-Royal","https://www.google.ca/search?ei=44gFXIa4Os61ggegy4jIBA&q=Maison+de+la+Culture+du+Plateau+Mont-Royal+in+Le+Plateau&oq=Maison+de+la+Culture+du+Plateau+Mont-Royal+in+Le+Plateau&gs_l=psy-ab.3..38.59085.59085..59559...0.0..0.108.108.0j1......0....1j2..gws-wiz..","http://www.accesculture.com/emplacement/MaisondelacultureduPlateauMontRoyal","465 Mont-Royal Ave E","","H2J 1W3","Canada","QC","Montreal"
"45","Maison Symphonique","Maison Symphonique","https://www.google.ca/maps/place/Orchestre+symphonique+de+Montréal/@45.509424,-73.566722,15z/data=!4m2!3m1!1s0x0:0x704eaa603ffc74d8","http://placedesarts.com/rooms/main-rooms/maison-symphonique-de-montreal.en.html","1600 Rue Saint-Urbain","","H2X 1Z8","Canada","Quebec","Montréal"
"79","Maisonneuve Theatre","Théâtre Maisonneuve","https://www.google.ca/maps/place/Place+des+Arts/@45.5079458,-73.5656047,18z/data=!4m2!3m1!1s0x0:0x586dc216d8c34686?hl=en","http://www.placedesarts.com","175 Rue Ste-Catherine O","","H2X 3X5","Canada","Quebec","Montréal"
"103","Marie-Claire-Kirkland-Casgrain Park","Parc Marie-Claire-Kirkland-Casgrain","https://www.google.ca/maps/place/8970+Boulevard+LaSalle,+LaSalle,+QC/@45.4156095,-73.6333307,17z/data=!3m1!4b1!4m5!3m4!1s0x4cc9115d9b3aac79:0xef246210deed9300!8m2!3d45.4156095!4d-73.631142","http://www.accesculture.com/emplacement/Parc_Marie_Claire_Kirkland_Casgrain1","8970 Boulevard LaSalle, LaSalle, QC","","H8P2R4","Canada","Quebec","Lasalle"
"122","Mariposa Cafe","Café Mariposa","https://www.google.ca/maps/place/Mariposa/@45.4790004,-73.6239794,15z/data=!4m2!3m1!1s0x0:0x9170788fdb81fc89?sa=X&ved=2ahUKEwj-i9KfvNHcAhWpllQKHfpHC74Q_BIwC3oECAYQCw","https://mariposacafe4.wixsite.com/2010","5434 Cote St-Luc rd","","H3X2C5","Canada","QC","Montreal"
"128","McCord Museum","Musée McCord","https://www.google.ca/maps/place/McCord+Museum/@45.504356,-73.573586,15z/data=!4m2!3m1!1s0x0:0xd1683b4ce04d0773?sa=X&ved=2ahUKEwjrju7r-NHcAhVoHjQIHRrkCUEQ_BIwC3oECAkQCw","http://www.musee-mccord.qc.ca/en/","690 Sherbrooke Street West","","H3A1E9","Canada","QC","Montreal"
"127","McGill University - Moyse Hall Art Building","Université McGill - Moyse Hall","https://www.google.ca/maps/place/Moyse+Hall+Theatre/@45.5052808,-73.5776571,15z/data=!4m2!3m1!1s0x0:0x4b4a8c287fb38ef2?sa=X&ved=2ahUKEwiM_Lnn9tHcAhXjslQKHezHAGQQ_BIwCnoECAgQCw","https://www.mcgill.ca/english/moyse-hall","853 Sherbrooke Street West","","H3A0G5","Canada","QC","Montreal"
"119","Métèque","Métèque","https://www.google.ca/maps/place/5442+Chemin+de+la+C%C3%B4te-Saint-Luc,+Montr%C3%A9al,+QC+H3X+2C5/data=!4m2!3m1!1s0x4cc91753965d36dd:0xe360681a9008cbd6?sa=X&ved=2ahUKEwj7oorsuNHcAhWbGDQIHfNeDiAQ8gEwAHoECAIQAQ","http://meteque.ca","5442 Côte Saint Luc Road","","H3X2C5","Canada","Quebec","Montreal"
"136","Montreal Arts Interculturels","Montréal, arts interculturels","https://www.google.ca/maps/place/MAI/@45.5114977,-73.5762163,15z/data=!4m2!3m1!1s0x0:0xbbd55208dae8ba44?sa=X&ved=2ahUKEwjsnszt8rDdAhXxs1kKHbwxAVwQ_BIwCnoECAsQCw","http://www.m-a-i.qc.ca/about/","3680 Jeanne Mance St","","H2X 2K5","Canada","QC","Montreal"
"166","Montreal Improv","Impro Montréal","https://www.google.com/search?client=safari&rls=en&q=Montreal+Improv+venue&ie=UTF-8&oe=UTF-8#","https://www.google.com/url?sa=t&rct=j&q=&esrc=s&source=web&cd=2&ved=2ahUKEwib1aOw37fjAhVSTd8KHSGyDBMQFjABegQIAxAB&url=https%3A%2F%2Fwww.montrealimprov.com%2F&usg=AOvVaw31jWPSYwnpC4VU-43wfLgY","3697 St Laurent Blvd","","H2X 2V7","Canada","Quebec","Montreal"
"140","Montreal Museum of Contemporary Art","Musee d'art contemporain de Montreal","https://www.google.ca/maps/place/MAC+Mus%C3%A9e+d'art+contemporain+de+Montr%C3%A9al/@45.5076536,-73.5663706,15z/data=!4m2!3m1!1s0x0:0x79421f35af6105b1?sa=X&ved=2ahUKEwj73Lap2LHdAhWNuVkKHSvPCusQ_BIwEXoECAkQCw","https://macm.org/en/general-information/hours-and-admission/","185 Saint-Catherine St W","","H2X 3X5","Canada","QC","Montreal"
"110","Montreal Museum of Fine Arts","Musée des Beaux-Arts de Montréal","https://www.google.ca/maps/place/The+Montreal+Museum+of+Fine+Arts/@45.4985219,-73.5815888,17z/data=!3m1!4b1!4m5!3m4!1s0x4cc91a401792c065:0xd6c96c76106b35b0!8m2!3d45.4985219!4d-73.5794001","https://www.mbam.qc.ca/en/","1380 Rue Sherbrooke O","","H3G1J5","Canada","Quebec","Montreal"
"147","Montreal Symphony House","Maison symphonique de Montréal","https://www.google.ca/maps/place/La+Maison+Symphonique/@45.5091527,-73.566186,15z/data=!4m2!3m1!1s0x0:0x83ee974031fec3ec?sa=X&ved=2ahUKEwiRsoT27rvdAhUHyFkKHc0cBLIQ_BIwDnoECAoQCw","https://placedesarts.com/en/produce-event/maison-symphonique","1600 St Urbain St","","H2X 0S1","Canada","QC","Montreal"
"64","Monument National","Monument National","https://www.google.ca/maps/place/Monument-National/@45.5091826,-73.5624727,17z/data=!3m1!4b1!4m2!3m1!1s0x4cc91a4e1aebee75:0xd7187804f377f319","https://www.monumentnational.com","1182 Boul. St-Laurent","","H2X 2S5","Canada","Quebec","Montréal"
"157","Morin Heights Theatre","Théâtre Morin Heights","https://www.google.ca/search?q=morin+heights+theatre&oq=Morin+Heights+Theatre&aqs=chrome.0.0.246j0j1&sourceid=chrome&ie=UTF-8#","http://www.theatremorinheights.ca/","27 Rue Bellevue","","J0R 1H0","Canada","QC","Montreal"
"112","Morrin Centre","Centre Morrin","https://www.google.ca/maps/place/44+Chauss%C3%A9e+des+%C3%89cossais,+Qu%C3%A9bec,+QC+G1R+4H3/data=!4m2!3m1!1s0x4cb895dee7fb5249:0x86aaed874d8d1dfd?sa=X&ved=2ahUKEwiX0_zzr8zcAhVpoFkKHY-_BW8Q8gEwAHoECAUQAQ","http://www.morrin.org/","44 Chaussée des Écossais","","G1R 4H3","Canada","Quebec","Quebec City"
"11","MTelus","MTelus","https://maps.google.ca/maps?q=Métropolis,+Saint+Catherine+Street,+Montreal,+QC&hl=en&ie=UTF8&ll=45.510633,-73.563337&spn=0.009639,0.018346&sll=45.541214,-73.593013&sspn=0.154136,0.293541&oq=metropol&t=h&z=16&iwloc=A","https://mtelus.com","59 Ste-Catherine E.","","H2X 1K5","Canada","Quebec","Montréal"
"7","Newspeak","Newspeak","https://www.google.ca/maps/place/Newspeak/@45.515519,-73.575954,3113m/data=!3m1!1e3!4m2!3m1!1s0x4cc91a4d0a91cb51:0x1266693382972d6e!6m1!1e1?hl=en","http://newspeakmtl.com/","1403 Ste-Élisabeth","","H2X 3C5","Canada","Quebec","Montréal"
"53","O Patro Vys","O Patro Vys","https://www.google.ca/maps/place/O+Patro+Vys/@45.523454,-73.58322,15z/data=!4m2!3m1!1s0x0:0xfbbccb40357be7af?sa=X&ei=CC0kVcyBHJOXyASg-IJw&ved=0CIcBEPwSMAo","https://www.facebook.com/pages/O-Patro-Vys/157240524296126","356 Mont-Royal E.","","H2T 2G4","Canada","Quebec","Montréal"
"40","Owl's Head","Owl's Head","https://www.google.ca/maps/place/Owl's+Head/@45.073495,-72.297954,17z/data=!3m1!4b1!4m2!3m1!1s0x4cb614f44291e5b1:0x28af85025e4418d9","http://www.owlshead.com/","40 Chemin du Mont Owls Head","","J0E 1X0","Canada","Quebec","Mansonville"
"170","P'tit Impro","P'tit Impro","https://www.google.com/search?client=safari&rls=en&q=P%27tit+Impro+montreal&ie=UTF-8&oe=UTF-8#","https://www.google.com/url?sa=t&rct=j&q=&esrc=s&source=web&cd=1&ved=2ahUKEwiE29Ty8LnjAhURVN8KHfpkCDAQFjAAegQIABAB&url=https%3A%2F%2Fwww.facebook.com%2Fleptitimpro%2F&usg=AOvVaw2onaKCFWlwZKjGGA-AXKDh","3713 St Laurent Blvd #202","","H2X 2V7","Canada","QC","Montreal"
"107","Parc Armand-Bombardier","Parc Armand-Bombardier","https://www.google.ca/maps/place/12640+25e+Avenue,+Montr%C3%A9al,+QC+H1E+1Y4/data=!4m2!3m1!1s0x4cc8e02415f65c1d:0x64b63374671aacf3?sa=X&ved=2ahUKEwiZ45iE2sncAhVDs1kKHXlvDzEQ8gEwAHoECAUQAQ","http://www.accesculture.com/emplacement/ParcArmandBombardier","12640 25e Avenue","","H1E 1Y4","Canada","Quebec","Montreal"
"106","Parc Basler","Parc Basler","https://www.google.ca/maps/place/81+Chemin+du+Lac+%C3%89cho,+Morin-Heights,+QC+J0R+1H0/@45.8995379,-74.2506114,17z/data=!3m1!4b1!4m8!1m2!2m1!1s81+Chemin+du+Lac+%C3%89cho!3m4!1s0x4ccf3cbb9c76f3a3:0x87ec645823bbd1ed!8m2!3d45.8995379!4d-74.2506114","http://www.morinheights.com/Parc-Basler","81 Chemin du Lac Écho","","J0R 1H0","Canada","Quebec","Morin-Heights"
"105","Parc Centennial Hill","Parc Centennial Hill","https://www.google.ca/maps/place/Centennial+Hall+%2F+Memorial+Park,+Beaconsfield,+QC+H9W+4A4/data=!4m2!3m1!1s0x4cc93eb56c02148d:0x3802906ffa6a06ac?sa=X&ved=2ahUKEwjXj5DX18ncAhXqqlkKHZz-AXQQ8gEwAHoECAYQAQ","https://www.beaconsfield.ca/en/centennial-hall-1/centennial-hall-photo-album","288 Beaconsfield Blvd.","","H9W 4A4","Canada","Quebec","Beaconsfield"
"132","Parc Girourd","Parc Girourd","https://www.google.ca/search?q=parc%20girouard&rlz=1C1GGRV_enCA755CA755&oq=park+girourd&aqs=chrome..69i57j0l5.4124j0j7&sourceid=chrome&ie=UTF-8&npsic=0&rflfq=1&rlha=0&rllag=45472688,-73613938,32&tbm=lcl&rldimm=11637443816906617775&ved=2ahUKEwj8v5Odu9ncAhXi","https://artsndg.ca/ndg-arts-week-2018/"," 3500 Av Girouard, Montréal",""," H4A 3C5","Canada","QC","Montreal"
"72","Parc Jean-Drapeau","Parc Jean-Drapeau","https://www.google.ca/maps/place/Parc+Jean-Drapeau/@45.5035723,-73.5290157,15z/data=!4m2!3m1!1s0x0:0x8efbbb205da547be?sa=X&ved=0ahUKEwjfu8z0pLzMAhWks4MKHdH3D4cQ_BIIfjAR","http://www.parcjeandrapeau.com","1 Circuit Gilles Villeneuve","","H3C 1A9","Canada","Quebec","Montreal"
"108","Parc Jeanne-Mance","Parc Jeanne-Mance","https://www.google.ca/maps/place/Jeanne-Mance+Park/@45.5152453,-73.5852122,17z/data=!3m1!4b1!4m5!3m4!1s0x4cc91a328780153f:0x3727e82292bff170!8m2!3d45.5152453!4d-73.5830235","http://ville.montreal.qc.ca/portal/page?_pageid=7297,74541590&_dad=portal&_schema=PORTAL","Av du Parc & Avenue du Mont-Royal","","H2W 2N4","Canada","Quebec","Montreal"
"109","Parc Olympique","Parc Olympique","https://www.google.ca/maps/place/4549+Pierre-de+Coubertin+Ave,+Montreal,+QC+H1V+3N7/data=!4m2!3m1!1s0x4cc91c0c5bbe9ccd:0x4734b00d76a60dec?sa=X&ved=2ahUKEwjJ3dfW28ncAhXPq1kKHUI3A24Q8gEwAHoECAYQAQ","https://parcolympique.qc.ca/","4549 av Pierre-de-Coubertin","","H1V 3N7","Canada","Quebec","Montreal"
"104","Parc Pierre Elliott Trudeau","Parc Pierre Elliott Trudeau","https://www.google.ca/maps/search/parc+pierre+elliott+trudeau/@45.4971912,-73.67987,13z/data=!3m1!4b1","http://www.cotesaintluc.org/TrudeauPark","6975 Mackle Rd. ","","H4W 1A6","Canada","Quebec","Côte Saint-Luc"
"48","Penthouse","Penthouse","https://www.google.ca/maps/place/Penthouse+Montreal/@45.520408,-73.586787,15z/data=!4m2!3m1!1s0x0:0x42000210fcf4c1b","https://www.facebook.com/penthousemontreal","4521 Boul. Saint-Laurent","","H2T 1R2","Canada","Quebec","Montréal"
"13","Petit Campus","Petit Campus","https://maps.google.ca/maps?daddr=57+Rue+Prince+Arthur+Est,+Montreal,+QC+H2X+2Y3&gl=ca&panel=1&fb=1&dirflg=d&geocode=0,45.514480,-73.572298&cid=0,0,2487135412711669425&hq=petit+campus&t=h&z=16","http://www.cafecampus.com/","57 Rue Prince Arthur E.","","H2X 1B4","Canada","Quebec","Montréal"
"165","Phi Centre","Phi Centre","https://goo.gl/maps/PQbqSkqCc2U2","https://phi-centre.com/en/","","","","Canada","QC","Montreal"
"141","Phonopolis Montréal","Phonopolis Montréal","https://www.google.ca/maps/place/Phonopolis+Record+Store/@45.524848,-73.6046625,15z/data=!4m2!3m1!1s0x0:0x8a291f6d8b285121?sa=X&ved=2ahUKEwj2i6fopLjdAhURx1kKHciUBWMQ_BIwDXoECAcQCw","https://online.phonopolis.ca/","207 rue Bernard O.","","H2T 2K5","Canada","QC","Montreal"
"46","Piccolo Rialto","Piccolo Rialto","https://www.google.ca/maps/place/5711+Av+du+Parc,+Montréal,+QC+H2V/@45.523378,-73.604828,17z/data=!4m7!1m4!3m3!1s0x4cc91978ff4ffbef:0x6d21c7f005090e5a!2s5711+Av+du+Parc,+Montréal,+QC+H2V!3b1!3m1!1s0x4cc91978ff4ffbef:0x6d21c7f005090e5a","http://theatrerialto.ca","5711 Avenue du Parc","","H2V 4G9","Canada","Quebec","Montréal"
"89","Piranha Bar","Bar Piranha","https://www.google.ca/maps/place/Piranha+Bar/@45.5028278,-73.5720003,17z/data=!4m12!1m6!3m5!1s0x4cc91a44442cff85:0xe2816f495e1813cd!2sPiranha+Bar!8m2!3d45.5028241!4d-73.5698116!3m4!1s0x4cc91a44442cff85:0xe2816f495e1813cd!8m2!3d45.5028241!4d-73.5698116","http://www.piranhabar.ca","680 Ste-Catherine O","","H3B 1C2","Canada","Quebec","Montreal"
"88","Place Bell","Place Bell","https://www.google.com/maps?ll=45.555895,-73.721598&z=14&t=m&hl=en-US&gl=CA&mapclient=embed&cid=12400176889980186447","https://www.placebell.ca/","1950 Claude-Gagné Road","","H7N 5H9","Canada","Quebec","Laval"
"41","Place des Festivals","Place des Festivals","https://www.google.ca/maps/place/Place+des+Festivals/@45.507378,-73.567237,17z/data=!3m1!4b1!4m2!3m1!1s0x0:0xec06b98512ada5a3","http://ville.montreal.qc.ca/portal/page?_pageid=7917,124039625&_dad=portal&_schema=PORTAL","Rue Jeanne-Mance","","","Canada","Quebec","Montréal"
"175","Pub La Sainte Paix","Pub La Sainte Paix","https://www.google.com/maps?q=drummondville+sainte+paix&uact=5&um=1&ie=UTF-8&sa=X&ved=0ahUKEwjprsDy6tPlAhUjiOAKHRfXBu4Q_AUIEigB","https://saintepaix.com/","224 Rue Hériot","","J2C 1K1","Canada","Quebec","Drummondville"
"8","Quai des Brumes","Quai des Brumes","https://maps.google.ca/maps?q=Quai+Des+Brumes,+Saint+Denis+Street,+Montreal,+QC&hl=en&sll=45.515519,-73.575954&sspn=0.019276,0.036693&oq=quai+des+bru&t=h&z=16&iwloc=A","http://www.quaidesbrumes.ca","4481 Rue Saint-Denis","","H2J 2L2","Canada","Quebec","Montréal"
"138","Quebec Writers' Federation Office","Quebec Writers Federation Office","https://www.google.ca/maps/place/1200+Avenue+Atwater+%233,+Montr%C3%A9al,+QC+H3Z+1T4/data=!4m2!3m1!1s0x4cc91a728116f839:0xb46b3db5a1264a42?sa=X&ved=2ahUKEwiy59qdjrHdAhWLct8KHbX-BFUQ8gEwAHoECAAQAQ","http://www.qwf.org/","1200 Atwater Avenue, Room 3","","H3Z 1X4","Canada","QC","Westmount"
"123","Résonance Café","Café Résonance","https://www.google.ca/maps/place/5175A+Park+Ave,+Montreal,+QC+H2V+4G3/data=!4m2!3m1!1s0x4cc9197f92e59dcf:0x7516495a2260d177?sa=X&ved=2ahUKEwiQpvLF4tHcAhWkCTQIHd0LAlkQ8gEwAHoECAIQAQ","https://www.facebook.com/resonancecafe/","5175A ave du Parc","","H2V 4G3","Canada","QC","Montreal"
"135","Salle Odyssé - Maison de la Culture de Gatineau","Salle Odyssé - Maison de la Culture de Gatineau","https://www.google.ca/maps/place/Maison+de+la+culture+-+salle+Odyss%C3%A9e/@45.4845871,-75.6819682,15z/data=!4m2!3m1!1s0x0:0xd86dd32131c0603a?sa=X&ved=2ahUKEwja5aDd47DdAhXyw1kKHQIqA7gQ_BIwDXoECAcQCw","http://www.maisondelaculture.ca/salle-odyssee/","855 Boulevard de la Gappe","","J8T 8H9","Canada","QC","Gatineau"
"35","Salle Wilfrid-Pelletier","Salle Wilfrid-Pelletier","https://www.google.ca/maps/place/Place+des+Arts/@45.5079458,-73.5656047,18z/data=!4m2!3m1!1s0x0:0x586dc216d8c34686?hl=en","http://www.placedesarts.com","175 Rue Ste-Catherine O","","H2X 3X5","Canada","Quebec","Montréal"
"121","Shaika Cafe","Café Shaika","https://www.google.ca/maps/place/Shaika+Caf%C3%A9/@45.472082,-73.61235,15z/data=!4m2!3m1!1s0x0:0x17b72b1317a1bf6f?sa=X&ved=2ahUKEwjUzojcutHcAhVbHzQIHQOQDv4Q_BIwDnoECAoQCw","http://www.shaikacafe.com/default.htm","5526 Sherbrooke St W","","H4A 1W2","Canada","QC","Montreal"
"23","Société des Arts Technologiques (SAT)","Société des Arts Technologiques (SAT)","https://maps.google.ca/maps?q=1201+Saint+Laurent+Boulevard,+Montreal,+QC+H2X+2S6&hl=en&ie=UTF8&sll=45.509597,-73.56291&sspn=0.01218,0.018024&oq=1201+Saint+Laurent+Boulevard,+Montreal,+QC+H2X+2S6&hnear=1201+Boulevard+Saint-Laurent,+Montréal,+Communauté-Urba","http://sat.qc.ca/","1201 St-Laurent","","H2X 2S6","Canada","Quebec","Montréal"
"96","St-James Church","Église St-James","https://www.google.ca/maps/place/463+Rue+Sainte-Catherine+O,+Montr%C3%A9al,+QC+H3B+1B1/data=!4m2!3m1!1s0x4cc91a4584fc2dad:0x1855b821bf860f6a?sa=X&ved=0ahUKEwjoosWy8bTZAhUnzoMKHXEbCUMQ8gEIJjAA","http://stjamesmontreal.ca/accueil/","463 Sainte-Catherine O.","","H3B 1B1","Canada","Quebec","Montreal"
"97","St-Jean-Baptiste Church","Église St-Jean-Baptiste","https://www.google.ca/maps/place/301+Rue+Rachel+E,+Montr%C3%A9al,+QC+H2W/data=!4m2!3m1!1s0x4cc91bcdc8c5e31f:0x17737c4271261baf?sa=X&ved=0ahUKEwjj0c3j8rTZAhUl9YMKHaZGBLMQ8gEIKTAA","http://eglisesjb.com/","301 Rachel E. ","","H2W 1E5 ","Canada","Quebec","Montreal"
"80","Studio Rialto","Studio Rialto","https://www.google.com/maps?q=5719+Parc+Montreal,+QC+H2V+4G9+Canada","http://www.popmontreal.com","5719 ave du Parc","","H2V 4G9","Canada","Quebec","Montréal"
"85","Suite 701","Suite 701","https://www.google.ca/maps/place/Suite+701/@45.5053794,-73.5577085,20z/data=!4m6!3m5!1s0x4cc91a50b4e1686f:0x77299f14f7298bd6!4b1!8m2!3d45.5053794!4d-73.5574349","http://www.suite701.com","701 COTE DE LA PLACE D'ARMES, Montreal","","H2Y 2X6","Canada","Quebec","Montreal"
"129","Surplace Media Coop","Surplace Media Coop","https://www.google.ca/maps/place/Surplace+Media+Coop+and+Studio/@45.5226858,-73.6026581,15z/data=!4m2!3m1!1s0x0:0x1a5d9e364a89a62a?sa=X&ved=2ahUKEwiU6dCVgdXcAhXsuFkKHY1DAFQQ_BIwEHoECAIQCw","http://surplace.co/","5585 Park Ave","","H2V4H2","Canada","QC","Montreal"
"160","TBD","TBD","https://www.google.com/maps/place/Montreal,+QC/data=!4m2!3m1!1s0x4cc91a541c64b70d:0x654e3138211fefef?ved=2ahUKEwiX0aPRlrTgAhVSwlkKHel8C7EQ8gEwAHoECAEQAQ","http://www.greenland.ca","","","","","",""
"15","The Barfly","The Barfly","https://maps.google.ca/maps?q=google.com+barfly+montreal&ie=UTF-8&ei=gltdUvikH8rkyAHE74BI&ved=0CAoQ_AUoAg","http://www.greenland.ca","4062 Boul. St Laurent","","H2W 1Y8","Canada","Quebec","Montréal"
"130","The Comedy Nest","The Comedy Nest","https://www.google.ca/maps/place/The+Comedy+Nest/@45.4898476,-73.5841459,15z/data=!4m2!3m1!1s0x0:0x444a3ed870253856?sa=X&ved=2ahUKEwiSmNC5gtXcAhVipVkKHe2VCsUQ_BIwFHoECAIQCw","http://comedynest.com/","2313 Saint Catherine Street","","H3H1N2","Canada","QC","Montreal"
"167","The Diving Bell Social Club","Club Social Le Scaphandre","https://www.google.com/search?client=safari&rls=en&q=The+Diving+Bell+Social+CLub&ie=UTF-8&oe=UTF-8#","https://www.google.com/url?sa=t&rct=j&q=&esrc=s&source=web&cd=1&ved=2ahUKEwiM1urO4rfjAhUKheAKHdNcDMoQFjAAegQIABAC&url=https%3A%2F%2Fdivingbellsocial.com%2F&usg=AOvVaw3WoqayX_WVfUrKSHyuZaZ8","956 St Laurent Blvd Étage 3","","H2W 1Y3","Canada","Quebec","Montreal"
"28","Théâtre Berri","Théâtre Berri","https://maps.google.ca/maps?q=1280+St-Denis+/+coin+Ste-Catherine+Montréal,+Québec+Canada,+H2X+3J6&ie=UTF-8&ei=S3YCU-OsHKqqyAGZy4GQBA&ved=0CAkQ_AUoAQ","http://www.electrostub.com/venues/letheatreberri","1280 St-Denis","","H2X 3J6","Canada","Quebec","Montréal"
"12","Théâtre Corona","Théâtre Corona","https://maps.google.ca/maps?q=Théâtre+Corona+Virgin+Mobile,+Notre+Dame+Street+West,+Montreal,+QC&hl=en&ie=UTF8&sll=45.510633,-73.563337&sspn=0.009639,0.018346&oq=theatre+corona&t=h&hq=Théâtre+Corona+Virgin+Mobile,&hnear=Notre+Dame+St+W,+Montreal,+Quebec&z=","http://theatrecoronavirginmobile.com","2490 Rue Notre Dame O","","H3J 1N5","Canada","Quebec","Montréal"
"5","Théâtre Fairmount","Théâtre Fairmount","https://www.google.ca/maps/place/Théâtre+Fairmount/@45.520492,-73.598517,359m/data=!3m1!1e3!4m6!1m3!3m2!1s0x4cc9197f9d5774fb:0x5d151fde94395ca!2zVGjDqcOidHJlIEZhaXJtb3VudA!3m1!1s0x4cc9197f9d5774fb:0x5d151fde94395ca!6m1!1e1","http://theatrefairmount.ca/","5240 ave du Parc","","H2V 4G7","Canada","Quebec","Montréal"
"99","Théâtre Granada","Théâtre Granada","https://www.google.com/maps/place/Th%C3%A9%C3%A2tre+Granada/@45.402278,-71.893198,17z/data=!3m1!4b1!4m5!3m4!1s0x4cb7b30faf6ec0d9:0x2d65e267d129ba56!8m2!3d45.402278!4d-71.891004?hl=fr","http://www.theatregranada.ca","53 Rue Wellington N","","J1H 5A9","Canada","Quebec","Sherbrooke"
"69","Théâtre Impérial","Théâtre Impérial","https://www.google.ca/maps/place/Imperial+Cinema/@45.5065641,-73.5700699,17z/data=!3m1!4b1!4m2!3m1!1s0x4cc91a4f6ea28fc9:0xe7cd093efdeacb62","http://www.cinemaimperial.com","1430 Rue Bleury ","","H3A 2J1","Canada","Quebec","Montreal"
"113","Théâtre Lac-Brome","Théâtre Lac-Brome","https://www.google.ca/maps/place/Theatre+Lac+Brome/@45.2157617,-72.5097359,15z/data=!4m2!3m1!1s0x0:0x9c9bf322d65b1cd6?sa=X&ved=2ahUKEwiimqq3sczcAhUFw1kKHb8VDTAQ_BIwDXoECAcQCw","https://theatrelacbrome.ca/","9 Mont Echo","","J0E 1V0","Canada","Quebec","Knowlton"
"154","Théâtre Maisonneuve","Théâtre Maisonneuve","https://www.google.ca/search?q=theatre+maisonneuve&oq=theatre+maison&aqs=chrome.0.0l2j69i57j0l3.2359j0j1&sourceid=chrome&ie=UTF-8#","https://placedesarts.com/en/produce-event/th%C3%A9%C3%A2tre-maisonneuve","260 Boulevard de Maisonneuve O","","H2X 1Y9","Canada","Quebec","Montreal"
"49","Théâtre Plaza","Théâtre Plaza","https://www.google.com/maps?ll=45.53633,-73.603294&z=16&t=m&hl=en&gl=US&mapclient=embed&cid=18103288615209286899","http://www.facebook.com/le.theatre.plaza","6505 rue Saint-Hubert","","H2S 2M5","Canada","Quebec","Montreal"
"58","Théâtre Rialto","Théâtre Rialto","https://www.google.ca/maps/place/5723+Av+du+Parc,+Montréal,+QC+H2V/@45.5235907,-73.60497,17z/data=!3m1!4b1!4m2!3m1!1s0x4cc91979b44990a3:0x9b13953e15f73235","http://www.theatrerialto.ca/","5723 ave du Parc","","H2V 4G9","Canada","Quebec","Montréal"
"111","Théâtre Sainte Catherine","Théâtre Sainte Catherine","https://www.google.ca/maps/place/Th%C3%A9%C3%A2tre+Sainte-Catherine/@45.512391,-73.561416,15z/data=!4m2!3m1!1s0x0:0x2612ae449f17d988?sa=X&ved=2ahUKEwiOpNmbo8zcAhVxqlkKHTavCNAQ_BIwEnoECAcQCw","http://theatresaintecatherine.com/en/","264 St Catherine St E","","H2X 1L4","Canada","Quebec","Montreal"
"78","Théâtre St-Denis","Théâtre St-Denis","https://www.google.ca/maps/place/Theatre+St-Denis/@45.5145632,-73.5628934,15z/data=!4m5!3m4!1s0x0:0xd8fef147a01b87df!8m2!3d45.5145632!4d-73.5628934","http://theatrestdenis.com","1594 Rue Saint-Denis","","H2X 3K2","Canada","Quebec","Montréal"
"52","TRH-Bar","TRH-Bar","https://www.google.ca/maps/place/3699+Boulevard+Saint-Laurent,+Montréal,+QC+H2X+2V7/data=!4m2!3m1!1s0x4cc91a351a8411e3:0x7636f4f7c5a3de83?sa=X&ei=IbT4VLPgLYKiNte4gPgH&ved=0CB0Q8gEwAA","http://www.trh-bar.com/","3699 Boul. St Laurent","","H2X 2V7","Canada","Quebec","Montréal"
"60","Turbo Haus","Turbo Haus","https://www.google.ca/maps/place/Turbo+Ha%C3%BCs/@45.5160756,-73.5659192,15z/data=!4m2!3m1!1s0x0:0x59821b393a8d0870?sa=X&ved=2ahUKEwjAje3H8oPdAhUKTd8KHXv3AIwQ_BIwDnoECAQQCw","http://www.turbohaus.ca","2040 Rue Saint Denis","","H2X 3K7","Canada","Quebec","Montréal"
"76","Ukrainian Federation","Fédération Ukrainienne","https://www.google.ca/maps/place/Ukrainian+National+Federation/@45.5196703,-73.5984822,15z/data=!4m5!3m4!1s0x0:0xd0886d0e8fc4f13!8m2!3d45.5196703!4d-73.5984822","http://www.popmontreal.com","405 Avenue Fairmount W.","","H2V 2G5","Canada","Quebec","Montréal"
"125","Unia Hall","Unia Hall","https://www.google.ca/maps/place/2741+Rue+Notre-Dame+Ouest,+Montr%C3%A9al,+QC+H3J+1N9/data=!4m2!3m1!1s0x4cc91a79dc3b8c63:0x1605545953ea55e4?sa=X&ved=2ahUKEwiO5PiU5NHcAhUNQq0KHa5IB0YQ8gEwAHoECAAQAQ","https://www.facebook.com/pages/Unia/613905268689422","2741 Notre Dame Street West","","H3J1N9","Canada","QC","Montreal"
"82","Uniprix Stadium","Stade Uniprix","https://www.google.ca/maps/place/Uniprix+Stadium/@45.5328391,-73.6271923,15z/data=!4m2!3m1!1s0x0:0xc3efd9e5fbb085a8?sa=X&ved=0ahUKEwjR0NDV_JbQAhVD2oMKHTvkDX4Q_BIIhwEwCg","http://www.stadeuniprix.com","285 Gary Carter","","H2R 2W1","Canada","Quebec","Montréal"
"171","Ursa","Ursa","https://www.google.com/search?rlz=1C1GGRV_enCA755CA755&q=google+maps+5589+Ave+du+parc+montreal+ursa&npsic=0&rflfq=1&rlha=0&tbm=lcl&ved=2ahUKEwiYm-Toh6TkAhUFheAKHei1D5YQtgN6BAgKEAQ&tbs=lrf:,lf:1,lf_ui:1&rldoc=1","https://www.facebook.com/ursamtl/","5589 Avenue du Parc","","H2V4S8","Canada","QC","Montreal"
"63","Velvet","Velvet","https://www.google.ca/maps/place/426+Rue+Saint+Gabriel,+Montréal,+QC+H2Y/@45.5064386,-73.5540303,17z/data=!3m1!4b1!4m2!3m1!1s0x4cc91a56fc9d47f3:0xda0309aacb66e538","http://velvetspeakeasy.ca/","426 Rue St-Gabriel","","H2Y 2Z9","Canada","Quebec","Montréal"
"62","Velvet - Auberge St-Gabriel","Velvet - Auberge St-Gabriel","https://www.google.ca/maps/place/Velvet+Club/@45.5064438,-73.5540397,17z/data=!3m1!4b1!4m2!3m1!1s0x4cc91a56fc11fc3f:0x1e68d61ab24f87d1","http://velvetspeakeasy.ca/","426 Rue St-Gabriel","","H2Y 2Z9","Canada","Quebec","Montréal"
"161","Verre Bouteille","Verre Bouteille","https://www.google.ca/maps/place/Le+Verre+Bouteille/@45.5354041,-73.5720406,15z/data=!4m2!3m1!1s0x0:0x404bdfc8f6fbe265?ved=2ahUKEwj5s_2EtJPgAhXJzlkKHT-eDyIQ_BIwFXoECAIQCA","https://verrebouteille.com/","  2112 Mont-Royal Est ","","H2H 1J8","Canada","Québec","Montréal"
"149","Wilder Building - Dance Room","Édifice Wilder - Espace Danse","https://www.google.ca/maps/place/Edifice+Wilder+-+Espace+danse/@45.5067913,-73.5673001,15z/data=!4m2!3m1!1s0x0:0x9723e40708bfc330?sa=X&ved=2ahUKEwik7sCst53eAhUG1lkKHdYFCXwQ_BIwCnoECAkQCw","https://edificewilderespacedanse.com/en/","1435 Rue de Bleury","","H3A 2H7","Canada","QC","Montreal"
